IRIDIUM 159             
1 43578U 18061K   25122.75802990  .00000563  00000+0  19410-3 0  9996
2 43578  86.4000 228.1650 0002253  89.6658 270.4795 14.34212517354551
IRIDIUM 180             
1 43922U 19002A   25122.68776587  .00000052  00000+0  11649-4 0  9999
2 43922  86.4002 165.1820 0002174  92.7683 267.3761 14.34217881330157
IRIDIUM 176             
1 43923U 19002B   25122.70202493  .00001439  00000+0  22431-3 0  9993
2 43923  86.6128 165.1738 0001740  95.5228 264.6187 14.72243521338850
IRIDIUM 168             
1 43924U 19002C   25122.68141725  .00000285  00000+0  94856-4 0  9990
2 43924  86.4004 165.2503 0002303  94.2030 265.9429 14.34215955330130
IRIDIUM 173             
1 43925U 19002D   25122.66873815  .00000067  00000+0  16966-4 0  9995
2 43925  86.4000 165.1616 0002108  94.1825 265.9612 14.34217563330114
IRIDIUM 169             
1 43926U 19002E   25122.94274900  .00000455  00000+0  14240-3 0  9990
2 43926  86.4286 196.6133 0001759 135.5350 224.5990 14.38606159331240
IRIDIUM 172             
1 43927U 19002F   25122.73216407  .00000101  00000+0  29124-4 0  9992
2 43927  86.4001 165.1417 0002215  85.3684 274.7765 14.34218002330138
IRIDIUM 175             
1 43928U 19002G   25122.96876431  .00000718  00000+0  10989-3 0  9999
2 43928  86.1468 120.1569 0002863 109.8993 250.2532 14.72239780338885
